IRIDIUM 166             
1 43570U 18061B   23225.02317981  .00000328  00000+0  11000-3 0  9997
2 43570  86.3994 131.0696 0002362  83.8224 276.3241 14.34217948264455
IRIDIUM 158             
1 43571U 18061C   23224.29377913  .00000332  00000+0  11143-3 0  9990
2 43571  86.3995 131.3830 0002478  77.1509 282.9964 14.34216049264322
IRIDIUM 165             
1 43572U 18061D   23225.01683951  .00000269  00000+0  88850-4 0  9993
2 43572  86.3997 131.1079 0002515  76.1154 284.0321 14.34215918264442
IRIDIUM 155             
1 43573U 18061E   23224.97877459  .00000324  00000+0  10851-3 0  9993
2 43573  86.3993 131.0439 0002233  91.5335 268.6116 14.34220643264415
IRIDIUM 154             
1 43574U 18061F   23224.26206527  .00000009  00000+0 -38824-5 0  9991
2 43574  86.3997 131.4262 0002039  78.8709 281.2716 14.34217045264357
IRIDIUM 163             
1 43575U 18061G   23224.10349828  .00000320  00000+0  10702-3 0  9995
2 43575  86.3995 131.4399 0002173  82.2950 277.8492 14.34220189264303
IRIDIUM 156             
1 43576U 18061H   23224.28742918  .00000325  00000+0  10916-3 0  9994
2 43576  86.3995 131.3685 0002604  86.4047 273.7446 14.34212842264315
IRIDIUM 164             
1 43577U 18061J   23224.26840787  .00000026  00000+0  22786-5 0  9994
2 43577  86.3997 131.4013 0002404  78.8139 281.3327 14.34213657264362
